{
  "type": "FeatureCollection",
  "features": [
    {
      "type": "Feature",
      "properties": {
        "norad_id": 34003,
        "name": "COSMOS 2251 DEB",
        "group": "cosmos-2251-debris",
        "lat": -46.72067168910465,
        "lon": -84.93027318390136,
        "alt_km": 967.4628670678767,
        "timestamp": "2025-12-08T05:48:09.426988+00:00",
        "meta_object_name": "COSMOS 2251 DEB",
        "meta_object_id": "1993-036GN",
        "meta_epoch": "2025-12-07T16:09:30.954816",
        "meta_mean_motion": 13.84107208,
        "meta_eccentricity": 0.02739443,
        "meta_inclination": 74.0788,
        "meta_ra_of_asc_node": 293.6708,
        "meta_arg_of_pericenter": 46.8714,
        "meta_mean_anomaly": 315.4969,
        "meta_ephemeris_type": 0,
        "meta_classification_type": "U",
        "meta_norad_cat_id": 34003,
        "meta_element_set_no": 999,
        "meta_rev_at_epoch": 84355,
        "meta_bstar": 0.0033803576,
        "meta_mean_motion_dot": 5.014e-05,
        "meta_mean_motion_ddot": 0,
        "tle_line1": "1 34003U 93036GN  25341.67327494  .00005014  00000+0  33804-2 0  9997",
        "tle_line2": "2 34003  74.0788 293.6708 0273944  46.8714 315.4969 13.84107208843556"
      },
      "geometry": {
        "type": "Point",
        "coordinates": [
          -84.93027318390136,
          -46.72067168910465
        ]
      }
    },
    {
      "type": "Feature",
      "properties": {
        "norad_id": 34004,
        "name": "COSMOS 2251 DEB",
        "group": "cosmos-2251-debris",
        "lat": -15.821902715407692,
        "lon": -43.10868622913918,
        "alt_km": 710.2218257753111,
        "timestamp": "2025-12-08T05:48:09.426998+00:00",
        "meta_object_name": "COSMOS 2251 DEB",
        "meta_object_id": "1993-036GP",
        "meta_epoch": "2025-12-07T00:03:02.971008",
        "meta_mean_motion": 14.48920169,
        "meta_eccentricity": 0.00332638,
        "meta_inclination": 74.0359,
        "meta_ra_of_asc_node": 323.8672,
        "meta_arg_of_pericenter": 336.8395,
        "meta_mean_anomaly": 23.1263,
        "meta_ephemeris_type": 0,
        "meta_classification_type": "U",
        "meta_norad_cat_id": 34004,
        "meta_element_set_no": 999,
        "meta_rev_at_epoch": 87947,
        "meta_bstar": 0.0022264278,
        "meta_mean_motion_dot": 8.471e-05,
        "meta_mean_motion_ddot": 0,
        "tle_line1": "1 34004U 93036GP  25341.00211772  .00008471  00000+0  22264-2 0  9994",
        "tle_line2": "2 34004  74.0359 323.8672 0033263 336.8395  23.1263 14.48920169879472"
      },
      "geometry": {
        "type": "Point",
        "coordinates": [
          -43.10868622913918,
          -15.821902715407692
        ]
      }
    },
    {
      "type": "Feature",
      "properties": {
        "norad_id": 34005,
        "name": "COSMOS 2251 DEB",
        "group": "cosmos-2251-debris",
        "lat": 35.9688032089651,
        "lon": -126.06013602700907,
        "alt_km": 746.5825338144641,
        "timestamp": "2025-12-08T05:48:09.427008+00:00",
        "meta_object_name": "COSMOS 2251 DEB",
        "meta_object_id": "1993-036GQ",
        "meta_epoch": "2025-12-07T23:03:15.880608",
        "meta_mean_motion": 14.40298849,
        "meta_eccentricity": 0.00206676,
        "meta_inclination": 74.045,
        "meta_ra_of_asc_node": 222.4767,
        "meta_arg_of_pericenter": 341.4847,
        "meta_mean_anomaly": 38.7318,
        "meta_ephemeris_type": 0,
        "meta_classification_type": "U",
        "meta_norad_cat_id": 34005,
        "meta_element_set_no": 999,
        "meta_rev_at_epoch": 88310,
        "meta_bstar": 0.00018024508,
        "meta_mean_motion_dot": 5.46e-06,
        "meta_mean_motion_ddot": 0,
        "tle_line1": "1 34005U 93036GQ  25341.96060047  .00000546  00000+0  18025-3 0  9993",
        "tle_line2": "2 34005  74.0450 222.4767 0020667 341.4847  38.7318 14.40298849883105"
      },
      "geometry": {
        "type": "Point",
        "coordinates": [
          -126.06013602700907,
          35.9688032089651
        ]
      }
    },
    {
      "type": "Feature",
      "properties": {
        "norad_id": 34006,
        "name": "COSMOS 2251 DEB",
        "group": "cosmos-2251-debris",
        "lat": 32.2846629677898,
        "lon": -38.06882403735908,
        "alt_km": 576.3576756647826,
        "timestamp": "2025-12-08T05:48:09.427018+00:00",
        "meta_object_name": "COSMOS 2251 DEB",
        "meta_object_id": "1993-036GR",
        "meta_epoch": "2025-12-07T21:40:58.181952",
        "meta_mean_motion": 14.94223976,
        "meta_eccentricity": 0.00116871,
        "meta_inclination": 74.0534,
        "meta_ra_of_asc_node": 153.0193,
        "meta_arg_of_pericenter": 105.692,
        "meta_mean_anomaly": 21.2174,
        "meta_ephemeris_type": 0,
        "meta_classification_type": "U",
        "meta_norad_cat_id": 34006,
        "meta_element_set_no": 999,
        "meta_rev_at_epoch": 88596,
        "meta_bstar": 0.0038681056,
        "meta_mean_motion_dot": 0.00041749,
        "meta_mean_motion_ddot": 0,
        "tle_line1": "1 34006U 93036GR  25341.90345118  .00041749  00000+0  38681-2 0  9992",
        "tle_line2": "2 34006  74.0534 153.0193 0011687 105.6920  21.2174 14.94223976885966"
      },
      "geometry": {
        "type": "Point",
        "coordinates": [
          -38.06882403735908,
          32.2846629677898
        ]
      }
    },
    {
      "type": "Feature",
      "properties": {
        "norad_id": 34007,
        "name": "COSMOS 2251 DEB",
        "group": "cosmos-2251-debris",
        "lat": -24.15556304216618,
        "lon": -177.05997980965148,
        "alt_km": 673.8238154776327,
        "timestamp": "2025-12-08T05:48:09.427027+00:00",
        "meta_object_name": "COSMOS 2251 DEB",
        "meta_object_id": "1993-036GS",
        "meta_epoch": "2025-12-07T09:12:10.303776",
        "meta_mean_motion": 14.6472978,
        "meta_eccentricity": 0.00445307,
        "meta_inclination": 74.0192,
        "meta_ra_of_asc_node": 357.207,
        "meta_arg_of_pericenter": 133.8677,
        "meta_mean_anomaly": 226.6185,
        "meta_ephemeris_type": 0,
        "meta_classification_type": "U",
        "meta_norad_cat_id": 34007,
        "meta_element_set_no": 999,
        "meta_rev_at_epoch": 89001,
        "meta_bstar": 0.0010571163,
        "meta_mean_motion_dot": 5.686e-05,
        "meta_mean_motion_ddot": 0,
        "tle_line1": "1 34007U 93036GS  25341.38345259  .00005686  00000+0  10571-2 0  9999",
        "tle_line2": "2 34007  74.0192 357.2070 0044530 133.8677 226.6185 14.64729780890010"
      },
      "geometry": {
        "type": "Point",
        "coordinates": [
          -177.05997980965148,
          -24.15556304216618
        ]
      }
    },
    {
      "type": "Feature",
      "properties": {
        "norad_id": 34008,
        "name": "COSMOS 2251 DEB",
        "group": "cosmos-2251-debris",
        "lat": 56.698340987002204,
        "lon": 4.575865356537856,
        "alt_km": 774.102858390138,
        "timestamp": "2025-12-08T05:48:09.427037+00:00",
        "meta_object_name": "COSMOS 2251 DEB",
        "meta_object_id": "1993-036GT",
        "meta_epoch": "2025-12-07T18:37:23.947968",
        "meta_mean_motion": 14.33141068,
        "meta_eccentricity": 0.00241451,
        "meta_inclination": 74.0341,
        "meta_ra_of_asc_node": 339.5905,
        "meta_arg_of_pericenter": 335.7607,
        "meta_mean_anomaly": 202.1369,
        "meta_ephemeris_type": 0,
        "meta_classification_type": "U",
        "meta_norad_cat_id": 34008,
        "meta_element_set_no": 999,
        "meta_rev_at_epoch": 87893,
        "meta_bstar": 0.00022346373,
        "meta_mean_motion_dot": 5.89e-06,
        "meta_mean_motion_ddot": 0,
        "tle_line1": "1 34008U 93036GT  25341.77597162  .00000589  00000+0  22346-3 0  9996",
        "tle_line2": "2 34008  74.0341 339.5905 0024145 335.7607 202.1369 14.33141068878936"
      },
      "geometry": {
        "type": "Point",
        "coordinates": [
          4.575865356537856,
          56.698340987002204
        ]
      }
    },
    {
      "type": "Feature",
      "properties": {
        "norad_id": 34009,
        "name": "COSMOS 2251 DEB",
        "group": "cosmos-2251-debris",
        "lat": 73.255589111612,
        "lon": 93.09921617835158,
        "alt_km": 758.8991543740676,
        "timestamp": "2025-12-08T05:48:09.427047+00:00",
        "meta_object_name": "COSMOS 2251 DEB",
        "meta_object_id": "1993-036GU",
        "meta_epoch": "2025-12-07T07:39:30.367872",
        "meta_mean_motion": 14.33215748,
        "meta_eccentricity": 0.0026345,
        "meta_inclination": 74.0371,
        "meta_ra_of_asc_node": 346.8432,
        "meta_arg_of_pericenter": 58.2195,
        "meta_mean_anomaly": 317.973,
        "meta_ephemeris_type": 0,
        "meta_classification_type": "U",
        "meta_norad_cat_id": 34009,
        "meta_element_set_no": 999,
        "meta_rev_at_epoch": 87868,
        "meta_bstar": 0.0002431103,
        "meta_mean_motion_dot": 6.45e-06,
        "meta_mean_motion_ddot": 0,
        "tle_line1": "1 34009U 93036GU  25341.31910148  .00000645  00000+0  24311-3 0  9997",
        "tle_line2": "2 34009  74.0371 346.8432 0026345  58.2195 317.9730 14.33215748878685"
      },
      "geometry": {
        "type": "Point",
        "coordinates": [
          93.09921617835158,
          73.255589111612
        ]
      }
    }
  ]
}